		ECCENTRICITY: "0.00066740",
		INCLINATION: "51.6304",
		RA_OF_ASC_NODE: "194.7265",
		ARG_OF_PERICENTER: "271.3270",
		MEAN_ANOMALY: "88.6954",
		BSTAR: "0.00010439000000",
		REV_AT_EPOCH: "57505",
	},
	{
		NORAD_CAT_ID: "25544",
		OBJECT_NAME: "ISS (ZARYA)",
		OBJECT_ID: "1998-067A",
		EPOCH: "2026-07-08T11:25:36.904512",
		MEAN_MOTION: "15.48944488",
		ECCENTRICITY: "0.00066744",
		INCLINATION: "51.6304",
		RA_OF_ASC_NODE: "194.7265",
		ARG_OF_PERICENTER: "271.3265",
		MEAN_ANOMALY: "88.6959",
		BSTAR: "0.00010439061000",
		REV_AT_EPOCH: "57505",
	},
	{
		NORAD_CAT_ID: "25544",
		OBJECT_NAME: "ISS (ZARYA)",
		OBJECT_ID: "1998-067A",
		EPOCH: "2026-07-08T17:37:14.092032",
		MEAN_MOTION: "15.48947664",
		ECCENTRICITY: "0.00066697",
		INCLINATION: "51.6304",
		RA_OF_ASC_NODE: "193.4497",
		ARG_OF_PERICENTER: "272.1743",
		MEAN_ANOMALY: "87.8481",
		BSTAR: "0.00010370434000",
		REV_AT_EPOCH: "57509",
	},
	{
		NORAD_CAT_ID: "25544",
		OBJECT_NAME: "ISS (ZARYA)",
		OBJECT_ID: "1998-067A",
		EPOCH: "2026-07-09T02:54:39.810240",
		MEAN_MOTION: "15.48953098",
		ECCENTRICITY: "0.00066703",
		INCLINATION: "51.6303",
		RA_OF_ASC_NODE: "191.5347",
		ARG_OF_PERICENTER: "273.7232",
		MEAN_ANOMALY: "86.2993",
		BSTAR: "0.00010961171000",
		REV_AT_EPOCH: "57515",
	},
	{
		NORAD_CAT_ID: "25544",
		OBJECT_NAME: "ISS (ZARYA)",
		OBJECT_ID: "1998-067A",
		EPOCH: "2026-07-09T16:50:48.208704",
		MEAN_MOTION: "15.48959671",
		ECCENTRICITY: "0.00066680",
		INCLINATION: "51.6304",
		RA_OF_ASC_NODE: "188.6620",
		ARG_OF_PERICENTER: "275.8666",
		MEAN_ANOMALY: "84.1562",
		BSTAR: "0.00010580000000",
		REV_AT_EPOCH: "57524",
	},
	{
		NORAD_CAT_ID: "25544",
		OBJECT_NAME: "ISS (ZARYA)",
		OBJECT_ID: "1998-067A",
		EPOCH: "2026-07-10T03:41:07.908864",
		MEAN_MOTION: "15.48965714",
		ECCENTRICITY: "0.00066838",
		INCLINATION: "51.6302",
		RA_OF_ASC_NODE: "186.4276",
		ARG_OF_PERICENTER: "277.8890",
		MEAN_ANOMALY: "82.1339",
		BSTAR: "0.00011035045000",
		REV_AT_EPOCH: "57531",
	},
	{
		NORAD_CAT_ID: "25544",
		OBJECT_NAME: "ISS (ZARYA)",
		OBJECT_ID: "1998-067A",
		EPOCH: "2026-07-10T08:19:50.601216",
		MEAN_MOTION: "15.48968037",
		ECCENTRICITY: "0.00066879",
		INCLINATION: "51.6302",
		RA_OF_ASC_NODE: "185.4700",
		ARG_OF_PERICENTER: "278.6359",
		MEAN_ANOMALY: "81.3872",
		BSTAR: "0.00011130671000",
		REV_AT_EPOCH: "57534",
	},
	{
		NORAD_CAT_ID: "25544",
		OBJECT_NAME: "ISS (ZARYA)",
		OBJECT_ID: "1998-067A",
		EPOCH: "2026-07-10T16:04:21.711072",
		MEAN_MOTION: "15.48970863",
		ECCENTRICITY: "0.00066840",
		INCLINATION: "51.6301",
		RA_OF_ASC_NODE: "183.8741",
		ARG_OF_PERICENTER: "279.9238",
		MEAN_ANOMALY: "80.0995",
		BSTAR: "0.00010345000000",
		REV_AT_EPOCH: "57539",
	},
	{
		NORAD_CAT_ID: "25544",
		OBJECT_NAME: "ISS (ZARYA)",
		OBJECT_ID: "1998-067A",
		EPOCH: "2026-07-11T04:27:35.337024",
		MEAN_MOTION: "15.48977198",
		ECCENTRICITY: "0.00066880",
		INCLINATION: "51.6302",
		RA_OF_ASC_NODE: "181.3206",
		ARG_OF_PERICENTER: "281.9973",
		MEAN_ANOMALY: "78.0266",
		BSTAR: "0.00010636000000",
		REV_AT_EPOCH: "57547",
	},
	{
		NORAD_CAT_ID: "25544",
		OBJECT_NAME: "ISS (ZARYA)",
		OBJECT_ID: "1998-067A",
		EPOCH: "2026-07-11T07:33:23.712192",
		MEAN_MOTION: "15.48978902",
		ECCENTRICITY: "0.00066885",
		INCLINATION: "51.6302",
		RA_OF_ASC_NODE: "180.6822",
		ARG_OF_PERICENTER: "282.4935",
		MEAN_ANOMALY: "77.5305",
		BSTAR: "0.00010843416000",
		REV_AT_EPOCH: "57549",
	},
	{
		NORAD_CAT_ID: "25544",
		OBJECT_NAME: "ISS (ZARYA)",
		OBJECT_ID: "1998-067A",
		EPOCH: "2026-07-11T07:33:23.712192",
		MEAN_MOTION: "15.48978902",
		ECCENTRICITY: "0.00066880",
		INCLINATION: "51.6302",
		RA_OF_ASC_NODE: "180.6822",
		ARG_OF_PERICENTER: "282.4935",
		MEAN_ANOMALY: "77.5305",
		BSTAR: "0.00010843000000",
		REV_AT_EPOCH: "57549",
	},
	{
		NORAD_CAT_ID: "25544",
		OBJECT_NAME: "ISS (ZARYA)",
		OBJECT_ID: "1998-067A",
		EPOCH: "2026-07-11T19:56:37.121280",
		MEAN_MOTION: "15.48984830",
		ECCENTRICITY: "0.00066855",
		INCLINATION: "51.6301",
		RA_OF_ASC_NODE: "178.1288",
		ARG_OF_PERICENTER: "284.5605",
		MEAN_ANOMALY: "75.4642",
		BSTAR: "0.00010800904000",
		REV_AT_EPOCH: "57557",
	},
	{
		NORAD_CAT_ID: "25544",
		OBJECT_NAME: "ISS (ZARYA)",
		OBJECT_ID: "1998-067A",
		EPOCH: "2026-07-11T19:56:37.121280",
		MEAN_MOTION: "15.48984830",
		ECCENTRICITY: "0.00066850",
		INCLINATION: "51.6301",
		RA_OF_ASC_NODE: "178.1288",
		ARG_OF_PERICENTER: "284.5605",
		MEAN_ANOMALY: "75.4642",
		BSTAR: "0.00010801000000",
		REV_AT_EPOCH: "57557",
	},
	{
		NORAD_CAT_ID: "25544",
		OBJECT_NAME: "ISS (ZARYA)",
		OBJECT_ID: "1998-067A",
		EPOCH: "2026-07-12T03:41:07.946016",
		MEAN_MOTION: "15.48987212",
		ECCENTRICITY: "0.00067009",
		INCLINATION: "51.6303",
		RA_OF_ASC_NODE: "176.5328",
		ARG_OF_PERICENTER: "285.7692",
		MEAN_ANOMALY: "74.2557",
		BSTAR: "0.00009668119800",
		REV_AT_EPOCH: "57562",
	},
	{
		NORAD_CAT_ID: "25544",
		OBJECT_NAME: "ISS (ZARYA)",
		OBJECT_ID: "1998-067A",
		EPOCH: "2026-07-12T03:41:07.946016",
		MEAN_MOTION: "15.48987212",
		ECCENTRICITY: "0.00067010",
		INCLINATION: "51.6303",
		RA_OF_ASC_NODE: "176.5328",
		ARG_OF_PERICENTER: "285.7692",
		MEAN_ANOMALY: "74.2557",
		BSTAR: "0.00009668100000",
		REV_AT_EPOCH: "57562",
	},
	{
		NORAD_CAT_ID: "25544",
		OBJECT_NAME: "ISS (ZARYA)",
		OBJECT_ID: "1998-067A",
		EPOCH: "2026-07-12T09:52:44.546016",
		MEAN_MOTION: "15.48989885",
		ECCENTRICITY: "0.00066981",
		INCLINATION: "51.6301",
		RA_OF_ASC_NODE: "175.2558",
		ARG_OF_PERICENTER: "286.7033",
		MEAN_ANOMALY: "73.3220",
		BSTAR: "0.00009492637000",
		REV_AT_EPOCH: "57566",
	},
	{
		NORAD_CAT_ID: "25544",
		OBJECT_NAME: "ISS (ZARYA)",
		OBJECT_ID: "1998-067A",
		EPOCH: "2026-07-12T09:52:44.546016",
		MEAN_MOTION: "15.48989885",
		ECCENTRICITY: "0.00066980",
		INCLINATION: "51.6301",
		RA_OF_ASC_NODE: "175.2558",
		ARG_OF_PERICENTER: "286.7033",
		MEAN_ANOMALY: "73.3220",
		BSTAR: "0.00009492600000",
		REV_AT_EPOCH: "57566",
	},
	{
		NORAD_CAT_ID: "25544",
		OBJECT_NAME: "ISS (ZARYA)",
		OBJECT_ID: "1998-067A",
		EPOCH: "2026-07-12T19:10:09.377760",
		MEAN_MOTION: "15.48994114",
		ECCENTRICITY: "0.00066950",
		INCLINATION: "51.6301",
		RA_OF_ASC_NODE: "173.3406",
		ARG_OF_PERICENTER: "288.1916",
		MEAN_ANOMALY: "71.8344",
		BSTAR: "0.00009580200000",
		REV_AT_EPOCH: "57572",
	},
	{
		NORAD_CAT_ID: "25544",
		OBJECT_NAME: "ISS (ZARYA)",
		OBJECT_ID: "1998-067A",
		EPOCH: "2026-07-13T02:54:40.039200",
		MEAN_MOTION: "15.48996109",
		ECCENTRICITY: "0.00066854",
		INCLINATION: "51.6304",
		RA_OF_ASC_NODE: "171.7447",
		ARG_OF_PERICENTER: "289.3803",
		MEAN_ANOMALY: "70.6462",
		BSTAR: "0.00008645602100",
		REV_AT_EPOCH: "57577",
	},
	{
		NORAD_CAT_ID: "25544",
		OBJECT_NAME: "ISS (ZARYA)",
		OBJECT_ID: "1998-067A",
		EPOCH: "2026-07-13T02:54:40.039200",
		MEAN_MOTION: "15.48996109",
		ECCENTRICITY: "0.00066850",
		INCLINATION: "51.6304",
		RA_OF_ASC_NODE: "171.7447",
		ARG_OF_PERICENTER: "289.3803",
		MEAN_ANOMALY: "70.6462",
		BSTAR: "0.00008645600000",
		REV_AT_EPOCH: "57577",
	},
	{
		NORAD_CAT_ID: "25544",
		OBJECT_NAME: "ISS (ZARYA)",
		OBJECT_ID: "1998-067A",
		EPOCH: "2026-07-13T07:33:22.422240",
		MEAN_MOTION: "15.48997295",
		ECCENTRICITY: "0.00066870",
		INCLINATION: "51.6305",
		RA_OF_ASC_NODE: "170.7871",
		ARG_OF_PERICENTER: "290.3592",
		MEAN_ANOMALY: "69.6678",
		BSTAR: "0.00008126633300",
		REV_AT_EPOCH: "57580",
	},
	{
		NORAD_CAT_ID: "25544",
		OBJECT_NAME: "ISS (ZARYA)",
		OBJECT_ID: "1998-067A",
		EPOCH: "2026-07-13T07:33:22.422240",
		MEAN_MOTION: "15.48997295",
		ECCENTRICITY: "0.00066870",
		INCLINATION: "51.6305",
		RA_OF_ASC_NODE: "170.7871",
		ARG_OF_PERICENTER: "290.3592",
		MEAN_ANOMALY: "69.6678",
		BSTAR: "0.00008126600000",
		REV_AT_EPOCH: "57580",
	},
	{
		NORAD_CAT_ID: "25544",
		OBJECT_NAME: "ISS (ZARYA)",
		OBJECT_ID: "1998-067A",
		EPOCH: "2026-07-13T18:23:41.212608",
		MEAN_MOTION: "15.49001429",
		ECCENTRICITY: "0.00067110",
		INCLINATION: "51.6307",
		RA_OF_ASC_NODE: "168.5527",
		ARG_OF_PERICENTER: "292.2587",
		MEAN_ANOMALY: "67.7689",
		BSTAR: "0.00008095600000",
		REV_AT_EPOCH: "57587",
	},
	{
		NORAD_CAT_ID: "25544",
		OBJECT_NAME: "ISS (ZARYA)",
		OBJECT_ID: "1998-067A",
		EPOCH: "2026-07-14T03:41:05.800704",
		MEAN_MOTION: "15.49005057",
		ECCENTRICITY: "0.00067040",
		INCLINATION: "51.6308",
		RA_OF_ASC_NODE: "166.6375",
		ARG_OF_PERICENTER: "293.6864",
		MEAN_ANOMALY: "66.3421",
		BSTAR: "0.00008142600000",
		REV_AT_EPOCH: "57593",
	},
	{
		NORAD_CAT_ID: "25544",
		OBJECT_NAME: "ISS (ZARYA)",
		OBJECT_ID: "1998-067A",
		EPOCH: "2026-07-14T09:52:42.163104",
		MEAN_MOTION: "15.49007257",
		ECCENTRICITY: "0.00067026",
		INCLINATION: "51.6306",
		RA_OF_ASC_NODE: "165.3606",
		ARG_OF_PERICENTER: "294.7447",
		MEAN_ANOMALY: "65.2843",
		BSTAR: "0.00008058503400",
		REV_AT_EPOCH: "57597",
	},
	{
		NORAD_CAT_ID: "25544",
		OBJECT_NAME: "ISS (ZARYA)",
		OBJECT_ID: "1998-067A",
		EPOCH: "2026-07-14T20:43:00.740064",
		MEAN_MOTION: "15.49010075",
		ECCENTRICITY: "0.00066869",
		INCLINATION: "51.6309",
		RA_OF_ASC_NODE: "163.1264",
		ARG_OF_PERICENTER: "296.7335",
		MEAN_ANOMALY: "63.2969",
		BSTAR: "0.00006560806900",
		REV_AT_EPOCH: "57604",
	},
	{
		NORAD_CAT_ID: "25544",
		OBJECT_NAME: "ISS (ZARYA)",
		OBJECT_ID: "1998-067A",
		EPOCH: "2026-07-14T20:43:00.778080",
		MEAN_MOTION: "15.49008846",
		ECCENTRICITY: "0.00066770",
		INCLINATION: "51.6306",
		RA_OF_ASC_NODE: "163.1262",
		ARG_OF_PERICENTER: "297.0398",
		MEAN_ANOMALY: "62.9909",
		BSTAR: "0.00005452700000",
		REV_AT_EPOCH: "57604",
	},
	{
		NORAD_CAT_ID: "25544",
		OBJECT_NAME: "ISS (ZARYA)",
		OBJECT_ID: "1998-067A",
		EPOCH: "2026-07-15T02:54:37.163808",
		MEAN_MOTION: "15.49005161",
		ECCENTRICITY: "0.00072510",
		INCLINATION: "51.6305",
		RA_OF_ASC_NODE: "161.8506",
		ARG_OF_PERICENTER: "303.7745",
		MEAN_ANOMALY: "56.2552",
		BSTAR: "0.00005589800000",
		REV_AT_EPOCH: "57608",
	},
	{
		NORAD_CAT_ID: "25544",
		OBJECT_NAME: "ISS (ZARYA)",
		OBJECT_ID: "1998-067A",
		EPOCH: "2026-07-15T09:06:13.253184",
		MEAN_MOTION: "15.49014944",
